SOYUZ-MS 28             
1 66664U 25275A   25363.50072365  .00018472  00000+0  33150-3 0  9992
2 66664  51.6323  59.4638 0003290 318.5670  41.5069 15.49944447545458
FORMOSAT-8A             
1 66666U 25276A   25363.76849536  .00023484  00000+0  18664-2 0  9996
2 66666  97.6579  75.4559 0004109 173.3753 186.7526 15.00435737  4647
PELICAN-5               
1 66667U 25276B   25363.74743495  .00013849  00000+0  69021-3 0  9990
2 66667  97.4412  75.2276 0002698 187.2087 172.9109 15.17663923  4700
TRANSPORTER-15C         
1 66668U 25276C   25363.09195623  .00261840  00000+0  10689-1 0  9993
2 66668  97.4269  74.5224 0027777 249.6027 110.2225 15.22909949  4608
TRANSPORTER-15D         
1 66669U 25276D   25363.76063088  .00039276  00000+0  19393-2 0  9995
2 66669  97.4284  75.1617 0007643 244.8972 115.1469 15.17739561  4705
HUNITY                  
1 66670U 25276E   25363.76163262  .00037210  00000+0  18438-2 0  9997
2 66670  97.4294  75.1644 0007291 244.5561 115.4918 15.17632030  4703
TRANSPORTER-15F         
1 66671U 25276F   25363.76055319  .00019754  00000+0  99192-3 0  9991
2 66671  97.4418  75.2117 0005410 223.8165 136.2640 15.17315141  4703
TRANSPORTER-15G         
1 66672U 25276G   25363.76786299  .00008196  00000+0  42155-3 0  9995
2 66672  97.4390  75.1918 0005836 221.2371 138.8422 15.16688079  4702
TRANSPORTER-15H         
1 66673U 25276H   25363.68545774  .00009704  00000+0  48780-3 0  9994
2 66673  97.4406  75.1480 0001547 198.1541 161.9638 15.17455052  4699
TRANSPORTER-15J         
1 66674U 25276J   25363.76555696  .00011537  00000+0  58975-3 0  9992
2 66674  97.4367  75.1866 0005367 225.6096 134.4698 15.16808917  4703
TRANSPORTER-15K         
1 66675U 25276K   25363.76206396  .00017740  00000+0  89459-3 0  9996
2 66675  97.4382  75.1964 0005317 230.2240 129.8526 15.17189060  4708
TRANSPORTER-15L         
1 66676U 25276L   25363.76492000  .00011726  00000+0  59779-3 0  9996
2 66676  97.4384  75.1920 0005064 228.4623 131.6176 15.16900790  4708
