CCSDS_OMM_VERS = 2.0
CREATION_DATE  = 
ORIGINATOR     = 

OBJECT_NAME    = SOYUZ-MS 28
OBJECT_ID      = 2025-275A
CENTER_NAME    = EARTH
REF_FRAME      = TEME
TIME_SYSTEM    = UTC
MEAN_ELEMENT_THEORY = SGP/SGP4

EPOCH          = 2025-12-29T12:01:02.523360
MEAN_MOTION    = 15.49944447
ECCENTRICITY   = .000329
INCLINATION    = 51.6323
RA_OF_ASC_NODE = 59.4638
ARG_OF_PERICENTER = 318.5670
MEAN_ANOMALY   = 41.5069

EPHEMERIS_TYPE = 0
CLASSIFICATION_TYPE = U
NORAD_CAT_ID   = 66664
ELEMENT_SET_NO = 999
REV_AT_EPOCH   = 54545
BSTAR          = .3315E-3
MEAN_MOTION_DOT = .18472E-3
MEAN_MOTION_DDOT = 0

CCSDS_OMM_VERS = 2.0
CREATION_DATE  = 
ORIGINATOR     = 

OBJECT_NAME    = FORMOSAT-8A
OBJECT_ID      = 2025-276A
CENTER_NAME    = EARTH
REF_FRAME      = TEME
TIME_SYSTEM    = UTC
MEAN_ELEMENT_THEORY = SGP/SGP4

EPOCH          = 2025-12-29T18:26:37.999104
MEAN_MOTION    = 15.00435737
ECCENTRICITY   = .0004109
INCLINATION    = 97.6579
RA_OF_ASC_NODE = 75.4559
ARG_OF_PERICENTER = 173.3753
MEAN_ANOMALY   = 186.7526

EPHEMERIS_TYPE = 0
CLASSIFICATION_TYPE = U
NORAD_CAT_ID   = 66666
ELEMENT_SET_NO = 999
REV_AT_EPOCH   = 464
BSTAR          = .18664E-2
MEAN_MOTION_DOT = .23484E-3
MEAN_MOTION_DDOT = 0

CCSDS_OMM_VERS = 2.0
CREATION_DATE  = 
ORIGINATOR     = 

OBJECT_NAME    = PELICAN-5
OBJECT_ID      = 2025-276B
CENTER_NAME    = EARTH
REF_FRAME      = TEME
TIME_SYSTEM    = UTC
MEAN_ELEMENT_THEORY = SGP/SGP4

EPOCH          = 2025-12-29T17:56:18.379680
MEAN_MOTION    = 15.17663923
ECCENTRICITY   = .0002698
INCLINATION    = 97.4412
RA_OF_ASC_NODE = 75.2276
ARG_OF_PERICENTER = 187.2087
MEAN_ANOMALY   = 172.9109

EPHEMERIS_TYPE = 0
CLASSIFICATION_TYPE = U
NORAD_CAT_ID   = 66667
ELEMENT_SET_NO = 999
REV_AT_EPOCH   = 470
BSTAR          = .69021E-3
MEAN_MOTION_DOT = .13849E-3
MEAN_MOTION_DDOT = 0

CCSDS_OMM_VERS = 2.0
CREATION_DATE  = 
ORIGINATOR     = 

OBJECT_NAME    = TRANSPORTER-15C
OBJECT_ID      = 2025-276C
CENTER_NAME    = EARTH
REF_FRAME      = TEME
TIME_SYSTEM    = UTC
MEAN_ELEMENT_THEORY = SGP/SGP4

EPOCH          = 2025-12-29T02:12:25.018272
MEAN_MOTION    = 15.22909949
ECCENTRICITY   = .00277776
INCLINATION    = 97.4269
RA_OF_ASC_NODE = 74.5224
ARG_OF_PERICENTER = 249.6027
MEAN_ANOMALY   = 110.2225

EPHEMERIS_TYPE = 0
CLASSIFICATION_TYPE = U
NORAD_CAT_ID   = 66668
ELEMENT_SET_NO = 999
REV_AT_EPOCH   = 460
BSTAR          = .1068867E-1
MEAN_MOTION_DOT = .26184E-2
MEAN_MOTION_DDOT = 0

CCSDS_OMM_VERS = 2.0
CREATION_DATE  = 
ORIGINATOR     = 

OBJECT_NAME    = TRANSPORTER-15D
OBJECT_ID      = 2025-276D
CENTER_NAME    = EARTH
REF_FRAME      = TEME
TIME_SYSTEM    = UTC
MEAN_ELEMENT_THEORY = SGP/SGP4

EPOCH          = 2025-12-29T18:15:18.508032
MEAN_MOTION    = 15.17739561
ECCENTRICITY   = .0007643
INCLINATION    = 97.4284
RA_OF_ASC_NODE = 75.1617
ARG_OF_PERICENTER = 244.8972
MEAN_ANOMALY   = 115.1469

EPHEMERIS_TYPE = 0
CLASSIFICATION_TYPE = U
NORAD_CAT_ID   = 66669
ELEMENT_SET_NO = 999
REV_AT_EPOCH   = 470
BSTAR          = .19393E-2
MEAN_MOTION_DOT = .39276E-3
MEAN_MOTION_DDOT = 0

CCSDS_OMM_VERS = 2.0
CREATION_DATE  = 
ORIGINATOR     = 

OBJECT_NAME    = HUNITY
OBJECT_ID      = 2025-276E
CENTER_NAME    = EARTH
REF_FRAME      = TEME
TIME_SYSTEM    = UTC
MEAN_ELEMENT_THEORY = SGP/SGP4

EPOCH          = 2025-12-29T18:16:45.058368
MEAN_MOTION    = 15.17632030
ECCENTRICITY   = .0007291
INCLINATION    = 97.4294
RA_OF_ASC_NODE = 75.1644
ARG_OF_PERICENTER = 244.5561
MEAN_ANOMALY   = 115.4918

EPHEMERIS_TYPE = 0
CLASSIFICATION_TYPE = U
NORAD_CAT_ID   = 66670
ELEMENT_SET_NO = 999
REV_AT_EPOCH   = 470
BSTAR          = .18438E-2
MEAN_MOTION_DOT = .3721E-3
MEAN_MOTION_DDOT = 0

CCSDS_OMM_VERS = 2.0
CREATION_DATE  = 
ORIGINATOR     = 

OBJECT_NAME    = TRANSPORTER-15F
OBJECT_ID      = 2025-276F
CENTER_NAME    = EARTH
REF_FRAME      = TEME
TIME_SYSTEM    = UTC
MEAN_ELEMENT_THEORY = SGP/SGP4

EPOCH          = 2025-12-29T18:15:11.795616
MEAN_MOTION    = 15.17315141
ECCENTRICITY   = .000541
INCLINATION    = 97.4418
RA_OF_ASC_NODE = 75.2117
ARG_OF_PERICENTER = 223.8165
MEAN_ANOMALY   = 136.2640

EPHEMERIS_TYPE = 0
CLASSIFICATION_TYPE = U
NORAD_CAT_ID   = 66671
ELEMENT_SET_NO = 999
REV_AT_EPOCH   = 470
BSTAR          = .99192E-3
MEAN_MOTION_DOT = .19754E-3
MEAN_MOTION_DDOT = 0

CCSDS_OMM_VERS = 2.0
CREATION_DATE  = 
ORIGINATOR     = 

OBJECT_NAME    = TRANSPORTER-15G
OBJECT_ID      = 2025-276G
CENTER_NAME    = EARTH
REF_FRAME      = TEME
TIME_SYSTEM    = UTC
MEAN_ELEMENT_THEORY = SGP/SGP4

EPOCH          = 2025-12-29T18:25:43.362336
MEAN_MOTION    = 15.16688079
ECCENTRICITY   = .0005836
INCLINATION    = 97.4390
RA_OF_ASC_NODE = 75.1918
ARG_OF_PERICENTER = 221.2371
MEAN_ANOMALY   = 138.8422

EPHEMERIS_TYPE = 0
CLASSIFICATION_TYPE = U
NORAD_CAT_ID   = 66672
ELEMENT_SET_NO = 999
REV_AT_EPOCH   = 470
BSTAR          = .42155E-3
MEAN_MOTION_DOT = .8196E-4
MEAN_MOTION_DDOT = 0

CCSDS_OMM_VERS = 2.0
CREATION_DATE  = 
ORIGINATOR     = 

OBJECT_NAME    = TRANSPORTER-15H
OBJECT_ID      = 2025-276H
CENTER_NAME    = EARTH
REF_FRAME      = TEME
TIME_SYSTEM    = UTC
MEAN_ELEMENT_THEORY = SGP/SGP4

EPOCH          = 2025-12-29T16:27:03.548736
MEAN_MOTION    = 15.17455052
ECCENTRICITY   = .0001547
INCLINATION    = 97.4406
RA_OF_ASC_NODE = 75.1480
ARG_OF_PERICENTER = 198.1541
MEAN_ANOMALY   = 161.9638

EPHEMERIS_TYPE = 0
CLASSIFICATION_TYPE = U
NORAD_CAT_ID   = 66673
ELEMENT_SET_NO = 999
REV_AT_EPOCH   = 469
BSTAR          = .4878E-3
MEAN_MOTION_DOT = .9704E-4
MEAN_MOTION_DDOT = 0

CCSDS_OMM_VERS = 2.0
CREATION_DATE  = 
ORIGINATOR     = 

OBJECT_NAME    = TRANSPORTER-15J
OBJECT_ID      = 2025-276J
CENTER_NAME    = EARTH
REF_FRAME      = TEME
TIME_SYSTEM    = UTC
MEAN_ELEMENT_THEORY = SGP/SGP4

EPOCH          = 2025-12-29T18:22:24.121344
MEAN_MOTION    = 15.16808917
ECCENTRICITY   = .0005367
INCLINATION    = 97.4367
RA_OF_ASC_NODE = 75.1866
ARG_OF_PERICENTER = 225.6096
MEAN_ANOMALY   = 134.4698

EPHEMERIS_TYPE = 0
CLASSIFICATION_TYPE = U
NORAD_CAT_ID   = 66674
ELEMENT_SET_NO = 999
REV_AT_EPOCH   = 470
BSTAR          = .58975E-3
MEAN_MOTION_DOT = .11537E-3
MEAN_MOTION_DDOT = 0

CCSDS_OMM_VERS = 2.0
CREATION_DATE  = 
ORIGINATOR     = 

OBJECT_NAME    = TRANSPORTER-15K
OBJECT_ID      = 2025-276K
CENTER_NAME    = EARTH
REF_FRAME      = TEME
TIME_SYSTEM    = UTC
MEAN_ELEMENT_THEORY = SGP/SGP4

EPOCH          = 2025-12-29T18:17:22.326144
MEAN_MOTION    = 15.17189060
ECCENTRICITY   = .0005317
INCLINATION    = 97.4382
RA_OF_ASC_NODE = 75.1964
ARG_OF_PERICENTER = 230.2240
MEAN_ANOMALY   = 129.8526

EPHEMERIS_TYPE = 0
CLASSIFICATION_TYPE = U
NORAD_CAT_ID   = 66675
ELEMENT_SET_NO = 999
REV_AT_EPOCH   = 470
BSTAR          = .89459E-3
MEAN_MOTION_DOT = .1774E-3
MEAN_MOTION_DDOT = 0

CCSDS_OMM_VERS = 2.0
CREATION_DATE  = 
ORIGINATOR     = 

OBJECT_NAME    = TRANSPORTER-15L
OBJECT_ID      = 2025-276L
CENTER_NAME    = EARTH
REF_FRAME      = TEME
TIME_SYSTEM    = UTC
MEAN_ELEMENT_THEORY = SGP/SGP4

EPOCH          = 2025-12-29T18:21:29.088000
MEAN_MOTION    = 15.16900790
ECCENTRICITY   = .0005064
INCLINATION    = 97.4384
RA_OF_ASC_NODE = 75.1920
ARG_OF_PERICENTER = 228.4623
MEAN_ANOMALY   = 131.6176

EPHEMERIS_TYPE = 0
CLASSIFICATION_TYPE = U
NORAD_CAT_ID   = 66676
ELEMENT_SET_NO = 999
REV_AT_EPOCH   = 470
BSTAR          = .59779E-3
MEAN_MOTION_DOT = .11726E-3
MEAN_MOTION_DDOT = 0

